[
    {
        "Altitude(m)": 570587.9512714267,
        "Argument of Periapsis(deg)": 0.013245982221427002,
        "Eccentricity": 0.0,
        "Inclination(deg)": 53.0,
        "Latitude(deg)": -49.93572422240782,
        "Longitude(deg)": 116.43716925677634,
        "Mean Anomaly(deg)": -107.08951426484481,
        "RAAN(deg)": 334.9802867370561,
        "Satellite Name": "Starlink Shell 1 1488",
        "Satellite Number": 1488,
        "Semi-Major Axis(m)": 6931778.249405717,
        "Time(s)": 380
    },
    {
        "Altitude(m)": 570676.5669043026,
        "Argument of Periapsis(deg)": 0.013594560700938237,
        "Eccentricity": 0.0,
        "Inclination(deg)": 53.0,
        "Latitude(deg)": -50.158785184159,
        "Longitude(deg)": 117.30242056226996,
        "Mean Anomaly(deg)": -106.46268306128815,
        "RAAN(deg)": 334.9797679669786,
        "Satellite Name": "Starlink Shell 1 1488",
        "Satellite Number": 1488,
        "Semi-Major Axis(m)": 6931778.249405717,
        "Time(s)": 390
    },
    {
        "Altitude(m)": 570762.1674272235,
        "Argument of Periapsis(deg)": 0.013943139180449475,
        "Eccentricity": 0.0,
        "Inclination(deg)": 53.0,
        "Latitude(deg)": -50.37469777000601,
        "Longitude(deg)": 118.1759941652097,
        "Mean Anomaly(deg)": -105.83585185773136,
        "RAAN(deg)": 334.9792491969011,
        "Satellite Name": "Starlink Shell 1 1488",
        "Satellite Number": 1488,
        "Semi-Major Axis(m)": 6931778.249405717,
        "Time(s)": 400
    },
    {
        "Altitude(m)": 570844.7187787149,
        "Argument of Periapsis(deg)": 0.014291717659960712,
        "Eccentricity": 0.0,
        "Inclination(deg)": 53.0,
        "Latitude(deg)": -50.5833431150077,
        "Longitude(deg)": 119.05775290645637,
        "Mean Anomaly(deg)": -105.20902065417461,
        "RAAN(deg)": 334.97873042682363,
        "Satellite Name": "Starlink Shell 1 1488",
        "Satellite Number": 1488,
        "Semi-Major Axis(m)": 6931778.249405717,
        "Time(s)": 410
    },
    {
        "Altitude(m)": 570924.188099662,
        "Argument of Periapsis(deg)": 0.014640296139471948,
        "Eccentricity": 0.0,
        "Inclination(deg)": 53.0,
        "Latitude(deg)": -50.784603893164,
        "Longitude(deg)": 119.94754357439723,
        "Mean Anomaly(deg)": -104.58218945061797,
        "RAAN(deg)": 334.97821165674617,
        "Satellite Name": "Starlink Shell 1 1488",
        "Satellite Number": 1488,
        "Semi-Major Axis(m)": 6931778.249405717,
        "Time(s)": 420
    },
    {
        "Altitude(m)": 571000.54374761,
        "Argument of Periapsis(deg)": 0.014988874618983185,
        "Eccentricity": 0.0,
        "Inclination(deg)": 53.0,
        "Latitude(deg)": -50.978364576701814,
        "Longitude(deg)": 120.84519715800526,
        "Mean Anomaly(deg)": -103.95535824706127,
        "RAAN(deg)": 334.9776928866687,
        "Satellite Name": "Starlink Shell 1 1488",
        "Satellite Number": 1488,
        "Semi-Major Axis(m)": 6931778.249405717,
        "Time(s)": 430
    },
    {
        "Altitude(m)": 571073.7553104912,
        "Argument of Periapsis(deg)": 0.015337453098494424,
        "Eccentricity": 0.0,
        "Inclination(deg)": 53.0,
        "Latitude(deg)": -51.164511702011275,
        "Longitude(deg)": 121.75052915592543,
        "Mean Anomaly(deg)": -103.32852704350452,
        "RAAN(deg)": 334.97717411659124,
        "Satellite Name": "Starlink Shell 1 1488",
        "Satellite Number": 1488,
        "Semi-Major Axis(m)": 6931778.249405717,
        "Time(s)": 440
    },
    {
        "Altitude(m)": 571143.7936198551,
        "Argument of Periapsis(deg)": 0.01568603157800566,
        "Eccentricity": 0.0,
        "Inclination(deg)": 53.0,
        "Latitude(deg)": -51.34293414119627,
        "Longitude(deg)": 122.66333843358059,
        "Mean Anomaly(deg)": -102.70169583994777,
        "RAAN(deg)": 334.9766553465137,
        "Satellite Name": "Starlink Shell 1 1488",
        "Satellite Number": 1488,
        "Semi-Major Axis(m)": 6931778.249405717,
        "Time(s)": 450
    },
    {
        "Altitude(m)": 571210.6307635311,
        "Argument of Periapsis(deg)": 0.0160346100575169,
        "Eccentricity": 0.0,
        "Inclination(deg)": 53.0,
        "Latitude(deg)": -51.51352337809354,
        "Longitude(deg)": 123.58340765867877,
        "Mean Anomaly(deg)": -102.07486463639108,
        "RAAN(deg)": 334.97613657643626,
        "Satellite Name": "Starlink Shell 1 1488",
        "Satellite Number": 1488,
        "Semi-Major Axis(m)": 6931778.249405717,
        "Time(s)": 460
    },
    {
        "Altitude(m)": 571274.240097728,
        "Argument of Periapsis(deg)": 0.016383188537028134,
        "Eccentricity": 0.0,
        "Inclination(deg)": 53.0,
        "Latitude(deg)": -51.676173787500346,
        "Longitude(deg)": 124.5105038065978,
        "Mean Anomaly(deg)": -101.44803343283439,
        "RAAN(deg)": 334.97561780635885,
        "Satellite Name": "Starlink Shell 1 1488",
        "Satellite Number": 1488,
        "Semi-Major Axis(m)": 6931778.249405717,
        "Time(s)": 470
    },
    {
        "Altitude(m)": 571334.5962586192,
        "Argument of Periapsis(deg)": 0.01673176701653937,
        "Eccentricity": 0.0,
        "Inclination(deg)": 53.0,
        "Latitude(deg)": -51.83078291624603,
        "Longitude(deg)": 125.44437722674589,
        "Mean Anomaly(deg)": -100.82120222927759,
        "RAAN(deg)": 334.97509903628134,
        "Satellite Name": "Starlink Shell 1 1488",
        "Satellite Number": 1488,
        "Semi-Major Axis(m)": 6931778.249405717,
        "Time(s)": 480
    },
    {
        "Altitude(m)": 571391.6751733259,
        "Argument of Periapsis(deg)": 0.017080345496050607,
        "Eccentricity": 0.0,
        "Inclination(deg)": 53.0,
        "Latitude(deg)": -51.97725176464966,
        "Longitude(deg)": 126.38476229915507,
        "Mean Anomaly(deg)": -100.1943710257209,
        "RAAN(deg)": 334.9745802662039,
        "Satellite Name": "Starlink Shell 1 1488",
        "Satellite Number": 1488,
        "Semi-Major Axis(m)": 6931778.249405717,
        "Time(s)": 490
    },
    {
        "Altitude(m)": 571445.454070358,
        "Argument of Periapsis(deg)": 0.017428923975561842,
        "Eccentricity": 0.0,
        "Inclination(deg)": 53.0,
        "Latitude(deg)": -52.11548506681531,
        "Longitude(deg)": 127.33137817141767,
        "Mean Anomaly(deg)": -99.56753982216419,
        "RAAN(deg)": 334.9740614961264,
        "Satellite Name": "Starlink Shell 1 1488",
        "Satellite Number": 1488,
        "Semi-Major Axis(m)": 6931778.249405717,
        "Time(s)": 500
    },
    {
        "Altitude(m)": 571495.9114895038,
        "Argument of Periapsis(deg)": 0.01777750245507308,
        "Eccentricity": 0.0,
        "Inclination(deg)": 53.0,
        "Latitude(deg)": -52.245391568139055,
        "Longitude(deg)": 128.28392806546486,
        "Mean Anomaly(deg)": -98.9407086186075,
        "RAAN(deg)": 334.97354272604895,
        "Satellite Name": "Starlink Shell 1 1488",
        "Satellite Number": 1488,
        "Semi-Major Axis(m)": 6931778.249405717,
        "Time(s)": 510
    },
    {
        "Altitude(m)": 571543.0272911021,
        "Argument of Periapsis(deg)": 0.018126080934584315,
        "Eccentricity": 0.0,
        "Inclination(deg)": 53.0,
        "Latitude(deg)": -52.36688429835525,
        "Longitude(deg)": 129.2421001817035,
        "Mean Anomaly(deg)": -98.31387741505075,
        "RAAN(deg)": 334.9730239559714,
        "Satellite Name": "Starlink Shell 1 1488",
        "Satellite Number": 1488,
        "Semi-Major Axis(m)": 6931778.249405717,
        "Time(s)": 520
    },
    {
        "Altitude(m)": 571586.7826647875,
        "Argument of Periapsis(deg)": 0.018474659414095554,
        "Eccentricity": 0.0,
        "Inclination(deg)": 53.0,
        "Latitude(deg)": -52.47988083832461,
        "Longitude(deg)": 130.20556868804508,
        "Mean Anomaly(deg)": -97.6870462114941,
        "RAAN(deg)": 334.97250518589397,
        "Satellite Name": "Starlink Shell 1 1488",
        "Satellite Number": 1488,
        "Semi-Major Axis(m)": 6931778.249405717,
        "Time(s)": 530
    },
    {
        "Altitude(m)": 571627.1601376279,
        "Argument of Periapsis(deg)": 0.018823237893606792,
        "Eccentricity": 0.0,
        "Inclination(deg)": 53.0,
        "Latitude(deg)": -52.58430357896487,
        "Longitude(deg)": 131.1739932824741,
        "Mean Anomaly(deg)": -97.06021500793742,
        "RAAN(deg)": 334.9719864158165,
        "Satellite Name": "Starlink Shell 1 1488",
        "Satellite Number": 1488,
        "Semi-Major Axis(m)": 6931778.249405717,
        "Time(s)": 540
    },
    {
        "Altitude(m)": 571664.143581712,
        "Argument of Periapsis(deg)": 0.019171816373118027,
        "Eccentricity": 0.0,
        "Inclination(deg)": 53.0,
        "Latitude(deg)": -52.68007997032288,
        "Longitude(deg)": 132.14702035227006,
        "Mean Anomaly(deg)": -96.43338380438057,
        "RAAN(deg)": 334.97146764573904,
        "Satellite Name": "Starlink Shell 1 1488",
        "Satellite Number": 1488,
        "Semi-Major Axis(m)": 6931778.249405717,
        "Time(s)": 550
    },
    {
        "Altitude(m)": 571697.7182211071,
        "Argument of Periapsis(deg)": 0.019520394852629266,
        "Eccentricity": 0.0,
        "Inclination(deg)": 53.0,
        "Latitude(deg)": -52.76714275920321,
        "Longitude(deg)": 133.12428421688924,
        "Mean Anomaly(deg)": -95.80655260082392,
        "RAAN(deg)": 334.9709488756616,
        "Satellite Name": "Starlink Shell 1 1488",
        "Satellite Number": 1488,
        "Semi-Major Axis(m)": 6931778.249405717,
        "Time(s)": 560
    }
]